start=new Date('2023-01-12T00:00:00.000Z').valueOf();
sats=[{"TLE_LINE2":"2 49728  53.2160 294.6803 0003019  21.6345 338.4775 15.08850476 61340","SITE":"AFETR","INCLINATION":"53.2160","MEAN_MOTION_DDOT":"0.0000000000000","EPHEMERIS_TYPE":"0","MEAN_MOTION_DOT":"0.00004355","REV_AT_EPOCH":"6134","NORAD_CAT_ID":"49728","OBJECT_NAME":"STARLINK-3240","SEMIMAJOR_AXIS":"6917.848","GP_ID":"222825179","ELEMENT_SET_NO":"999","CENTER_NAME":"EARTH","ARG_OF_PERICENTER":"21.6345","APOAPSIS":"541.802","COUNTRY_CODE":"US","DECAY_DATE":null,"RA_OF_ASC_NODE":"294.6803","ECCENTRICITY":"0.00030190","TLE_LINE1":"1 49728U 21115E   23011.79149697  .00004355  00000-0  29151-3 0  9997","OBJECT_ID":"2021-115E","FILE":"3740419","MEAN_ELEMENT_THEORY":"SGP4","EPOCH":"2023-01-11T18:59:45.338208","PERIOD":"95.437","CLASSIFICATION_TYPE":"U","BSTAR":"0.00029151000000","MEAN_ANOMALY":"338.4775","TIME_SYSTEM":"UTC","RCS_SIZE":"LARGE","OBJECT_TYPE":"PAYLOAD","MEAN_MOTION":"15.08850476","LAUNCH_DATE":"2021-12-02","PERIAPSIS":"537.625","REF_FRAME":"TEME"},{"TLE_LINE2":"2 49729  53.2167 294.6737 0002235  30.3072 329.8049 15.08857539 61342","INCLINATION":"53.2167","MEAN_MOTION_DDOT":"0.0000000000000","SITE":"AFETR","EPHEMERIS_TYPE":"0","NORAD_CAT_ID":"49729","REV_AT_EPOCH":"6134","MEAN_MOTION_DOT":"0.00003369","OBJECT_NAME":"STARLINK-3251","SEMIMAJOR_AXIS":"6917.827","GP_ID":"222825931","ELEMENT_SET_NO":"999","APOAPSIS":"541.238","ARG_OF_PERICENTER":"30.3072","CENTER_NAME":"EARTH","COUNTRY_CODE":"US","DECAY_DATE":null,"RA_OF_ASC_NODE":"294.6737","ECCENTRICITY":"0.00022350","OBJECT_ID":"2021-115F","TLE_LINE1":"1 49729U 21115F   23011.79517821  .00003369  00000-0  22956-3 0  9996","FILE":"3740419","MEAN_ELEMENT_THEORY":"SGP4","PERIOD":"95.436","EPOCH":"2023-01-11T19:05:03.397344","MEAN_ANOMALY":"329.8049","BSTAR":"0.00022956000000","TIME_SYSTEM":"UTC","CLASSIFICATION_TYPE":"U","RCS_SIZE":"LARGE","OBJECT_TYPE":"PAYLOAD","MEAN_MOTION":"15.08857539","LAUNCH_DATE":"2021-12-02","PERIAPSIS":"538.146","REF_FRAME":"TEME"},{"SEMIMAJOR_AXIS":"6917.852","ELEMENT_SET_NO":"999","GP_ID":"222825677","OBJECT_NAME":"STARLINK-3249","CENTER_NAME":"EARTH","ARG_OF_PERICENTER":"28.1100","APOAPSIS":"541.667","COUNTRY_CODE":"US","SITE":"AFETR","INCLINATION":"53.2185","MEAN_MOTION_DDOT":"0.0000000000000","TLE_LINE2":"2 49730  53.2185 294.6313 0002820  28.1100 332.0044 15.08849438 61341","EPHEMERIS_TYPE":"0","REV_AT_EPOCH":"6134","MEAN_MOTION_DOT":"0.00002593","NORAD_CAT_ID":"49730","RCS_SIZE":"LARGE","CLASSIFICATION_TYPE":"U","MEAN_ANOMALY":"332.0044","BSTAR":"0.00018090000000","TIME_SYSTEM":"UTC","LAUNCH_DATE":"2021-12-02","REF_FRAME":"TEME","PERIAPSIS":"537.766","MEAN_MOTION":"15.08849438","OBJECT_TYPE":"PAYLOAD","ECCENTRICITY":"0.00028200","OBJECT_ID":"2021-115G","TLE_LINE1":"1 49730U 21115G   23011.80254001  .00002593  00000-0  18090-3 0  9990","DECAY_DATE":null,"RA_OF_ASC_NODE":"294.6313","EPOCH":"2023-01-11T19:15:39.456864","PERIOD":"95.437","FILE":"3740419","MEAN_ELEMENT_THEORY":"SGP4"},{"MEAN_ELEMENT_THEORY":"SGP4","FILE":"3740419","PERIOD":"95.437","EPOCH":"2023-01-11T19:10:21.651744","RA_OF_ASC_NODE":"294.6490","DECAY_DATE":null,"OBJECT_ID":"2021-115H","TLE_LINE1":"1 49731U 21115H   23011.79886171  .00000607  00000-0  56270-4 0  9995","ECCENTRICITY":"0.00029170","OBJECT_TYPE":"PAYLOAD","REF_FRAME":"TEME","LAUNCH_DATE":"2021-12-02","PERIAPSIS":"537.706","MEAN_MOTION":"15.08847062","TIME_SYSTEM":"UTC","BSTAR":"0.00005627000000","MEAN_ANOMALY":"334.1012","CLASSIFICATION_TYPE":"U","RCS_SIZE":"LARGE","NORAD_CAT_ID":"49731","MEAN_MOTION_DOT":"0.00000607","REV_AT_EPOCH":"6134","EPHEMERIS_TYPE":"0","TLE_LINE2":"2 49731  53.2181 294.6490 0002917  26.0126 334.1012 15.08847062 61345","MEAN_MOTION_DDOT":"0.0000000000000","INCLINATION":"53.2181","SITE":"AFETR","COUNTRY_CODE":"US","APOAPSIS":"541.742","ARG_OF_PERICENTER":"26.0126","CENTER_NAME":"EARTH","OBJECT_NAME":"STARLINK-3228","ELEMENT_SET_NO":"999","GP_ID":"222824930","SEMIMAJOR_AXIS":"6917.859"},{"SITE":"AFETR","INCLINATION":"53.2170","MEAN_MOTION_DDOT":"0.0000000000000","TLE_LINE2":"2 49732  53.2170 294.2881 0002482  31.2452 328.8688 15.08856520 61350","EPHEMERIS_TYPE":"0","MEAN_MOTION_DOT":"0.00005056","REV_AT_EPOCH":"6135","NORAD_CAT_ID":"49732","SEMIMAJOR_AXIS":"6917.830","GP_ID":"222824680","ELEMENT_SET_NO":"999","OBJECT_NAME":"STARLINK-3246","ARG_OF_PERICENTER":"31.2452","CENTER_NAME":"EARTH","APOAPSIS":"541.412","COUNTRY_CODE":"US","ECCENTRICITY":"0.00024820","TLE_LINE1":"1 49732U 21115J   23011.87981777  .00005056  00000-0  33540-3 0  9990","OBJECT_ID":"2021-115J","DECAY_DATE":null,"RA_OF_ASC_NODE":"294.2881","EPOCH":"2023-01-11T21:06:56.255328","PERIOD":"95.437","FILE":"3740419","MEAN_ELEMENT_THEORY":"SGP4","RCS_SIZE":"LARGE","CLASSIFICATION_TYPE":"U","MEAN_ANOMALY":"328.8688","BSTAR":"0.00033540000000","TIME_SYSTEM":"UTC","MEAN_MOTION":"15.08856520","LAUNCH_DATE":"2021-12-02","PERIAPSIS":"537.978","REF_FRAME":"TEME","OBJECT_TYPE":"PAYLOAD"},{"SEMIMAJOR_AXIS":"6917.854","GP_ID":"222825431","ELEMENT_SET_NO":"999","OBJECT_NAME":"STARLINK-3252","CENTER_NAME":"EARTH","ARG_OF_PERICENTER":"27.0210","APOAPSIS":"541.457","COUNTRY_CODE":"US","SITE":"AFETR","INCLINATION":"53.2168","MEAN_MOTION_DDOT":"0.0000000000000","TLE_LINE2":"2 49733  53.2168 294.3189 0002513  27.0210 333.0912 15.08848742 61355","EPHEMERIS_TYPE":"0","REV_AT_EPOCH":"6135","MEAN_MOTION_DOT":"0.00001284","NORAD_CAT_ID":"49733","RCS_SIZE":"LARGE","CLASSIFICATION_TYPE":"U","MEAN_ANOMALY":"333.0912","BSTAR":"0.00009874100000","TIME_SYSTEM":"UTC","REF_FRAME":"TEME","LAUNCH_DATE":"2021-12-02","PERIAPSIS":"537.980","MEAN_MOTION":"15.08848742","OBJECT_TYPE":"PAYLOAD","ECCENTRICITY":"0.00025130","TLE_LINE1":"1 49733U 21115K   23011.87245697  .00001284  00000-0  98741-4 0  9999","OBJECT_ID":"2021-115K","DECAY_DATE":null,"RA_OF_ASC_NODE":"294.3189","EPOCH":"2023-01-11T20:56:20.282208","PERIOD":"95.437","FILE":"3740419","MEAN_ELEMENT_THEORY":"SGP4"},{"APOAPSIS":"541.539","CENTER_NAME":"EARTH","ARG_OF_PERICENTER":"33.9276","COUNTRY_CODE":"US","SEMIMAJOR_AXIS":"6917.887","GP_ID":"222739340","ELEMENT_SET_NO":"999","OBJECT_NAME":"STARLINK-3238","EPHEMERIS_TYPE":"0","NORAD_CAT_ID":"49734","MEAN_MOTION_DOT":"0.00006787","REV_AT_EPOCH":"6255","MEAN_MOTION_DDOT":"0.0000000000000","INCLINATION":"53.2182","SITE":"AFETR","TLE_LINE2":"2 49734  53.2182 286.0369 0002583  33.9276 326.1880 15.08837866 62550","MEAN_MOTION":"15.08837866","LAUNCH_DATE":"2021-12-02","PERIAPSIS":"537.965","REF_FRAME":"TEME","OBJECT_TYPE":"PAYLOAD","RCS_SIZE":"LARGE","BSTAR":"0.00044411000000","MEAN_ANOMALY":"326.1880","TIME_SYSTEM":"UTC","CLASSIFICATION_TYPE":"U","PERIOD":"95.438","EPOCH":"2023-01-11T11:51:52.379136","FILE":"3739955","MEAN_ELEMENT_THEORY":"SGP4","ECCENTRICITY":"0.00025830","OBJECT_ID":"2021-115L","TLE_LINE1":"1 49734U 21115L   23011.49435624  .00006787  00000-0  44411-3 0  9996","DECAY_DATE":null,"RA_OF_ASC_NODE":"286.0369"},{"EPHEMERIS_TYPE":"0","REV_AT_EPOCH":"6129","MEAN_MOTION_DOT":"0.00005687","NORAD_CAT_ID":"49735","SITE":"AFETR","MEAN_MOTION_DDOT":"0.0000000000000","INCLINATION":"53.2172","TLE_LINE2":"2 49735  53.2172 296.0882 0002475  34.1368 325.9783 15.08847341 61294","CENTER_NAME":"EARTH","ARG_OF_PERICENTER":"34.1368","APOAPSIS":"541.435","COUNTRY_CODE":"US","SEMIMAJOR_AXIS":"6917.858","GP_ID":"222767226","ELEMENT_SET_NO":"999","OBJECT_NAME":"STARLINK-3113","EPOCH":"2023-01-11T11:29:20.164704","PERIOD":"95.437","FILE":"3740054","MEAN_ELEMENT_THEORY":"SGP4","ECCENTRICITY":"0.00024750","TLE_LINE1":"1 49735U 21115M   23011.47870561  .00005687  00000-0  37504-3 0  9991","OBJECT_ID":"2021-115M","DECAY_DATE":null,"RA_OF_ASC_NODE":"296.0882","LAUNCH_DATE":"2021-12-02","PERIAPSIS":"538.011","MEAN_MOTION":"15.08847341","REF_FRAME":"TEME","OBJECT_TYPE":"PAYLOAD","RCS_SIZE":"LARGE","CLASSIFICATION_TYPE":"U","TIME_SYSTEM":"UTC","BSTAR":"0.00037504000000","MEAN_ANOMALY":"325.9783"},{"TLE_LINE2":"2 49736  53.2157 284.7981 0002417  36.5842 323.5315 15.08834356 61489","SITE":"AFETR","MEAN_MOTION_DDOT":"0.0000000000000","INCLINATION":"53.2157","EPHEMERIS_TYPE":"0","REV_AT_EPOCH":"6148","MEAN_MOTION_DOT":"0.00008501","NORAD_CAT_ID":"49736","OBJECT_NAME":"STARLINK-3148","SEMIMAJOR_AXIS":"6917.898","GP_ID":"222825180","ELEMENT_SET_NO":"999","CENTER_NAME":"EARTH","ARG_OF_PERICENTER":"36.5842","APOAPSIS":"541.435","COUNTRY_CODE":"US","DECAY_DATE":null,"RA_OF_ASC_NODE":"284.7981","ECCENTRICITY":"0.00024170","OBJECT_ID":"2021-115N","TLE_LINE1":"1 49736U 21115N   23011.76667611  .00008501  00000-0  55167-3 0  9997","FILE":"3740419","MEAN_ELEMENT_THEORY":"SGP4","EPOCH":"2023-01-11T18:24:00.815904","PERIOD":"95.438","CLASSIFICATION_TYPE":"U","BSTAR":"0.00055167000000","MEAN_ANOMALY":"323.5315","TIME_SYSTEM":"UTC","RCS_SIZE":"LARGE","OBJECT_TYPE":"PAYLOAD","MEAN_MOTION":"15.08834356","LAUNCH_DATE":"2021-12-02","PERIAPSIS":"538.091","REF_FRAME":"TEME"},{"GP_ID":"222825932","ELEMENT_SET_NO":"999","SEMIMAJOR_AXIS":"6917.801","OBJECT_NAME":"STARLINK-3225","COUNTRY_CODE":"US","APOAPSIS":"540.691","ARG_OF_PERICENTER":"67.1156","CENTER_NAME":"EARTH","INCLINATION":"53.2149","MEAN_MOTION_DDOT":"0.0000000000000","SITE":"AFETR","TLE_LINE2":"2 49737  53.2149 284.5156 0001481  67.1156 292.9993 15.08865920 61494","NORAD_CAT_ID":"49737","REV_AT_EPOCH":"6149","MEAN_MOTION_DOT":"0.00007262","EPHEMERIS_TYPE":"0","RCS_SIZE":"LARGE","MEAN_ANOMALY":"292.9993","BSTAR":"0.00047353000000","TIME_SYSTEM":"UTC","CLASSIFICATION_TYPE":"U","LAUNCH_DATE":"2021-12-02","PERIAPSIS":"538.642","REF_FRAME":"TEME","MEAN_MOTION":"15.08865920","OBJECT_TYPE":"PAYLOAD","TLE_LINE1":"1 49737U 21115P   23011.82921050  .00007262  00000-0  47353-3 0  9996","OBJECT_ID":"2021-115P","ECCENTRICITY":"0.00014810","RA_OF_ASC_NODE":"284.5156","DECAY_DATE":null,"PERIOD":"95.436","EPOCH":"2023-01-11T19:54:03.787200","MEAN_ELEMENT_THEORY":"SGP4","FILE":"3740419"}];
